CAS-2T & KS-1Q          
1 41847U 16066G   20246.78564257  .00000051  00000-0  18241-4 0  9997
2 41847  98.6473 298.0479 0365580 358.6650   1.3528 14.38088068200537
NAYIF-1 (EO-88)         
1 42017U 17008BX  20246.76425765  .00001770  00000-0  70146-4 0  9993
2 42017  97.3543 313.1830 0007537  58.3171 301.8802 15.26693888197345
MAX VALIER SAT          
1 42778U 17036P   20246.75574866  .00001059  00000-0  48202-4 0  9992
2 42778  97.2984 298.2295 0013902 108.3886 251.8864 15.22740432177497
RADFXSAT (FOX-1B)       
1 43017U 17073E   20246.72014466  .00000397  00000-0  36044-4 0  9997
2 43017  97.7170 155.9655 0257210 158.2852 202.9506 14.79003052150586
FOX-1D (AO-92)          
1 43137U 18004AC  20246.75521477  .00001186  00000-0  51479-4 0  9999
2 43137  97.4407 317.3773 0010277 136.8064 223.3981 15.24254534146810
DIWATA-2B               
1 43678U 18084H   20246.81928091 -.00000134  00000-0 -76011-5 0  9991
2 43678  97.8921   5.2558 0008570 284.6332  75.3958 14.91644933100551
ES'HAIL 2               
1 43700U 18090A   20246.91369111  .00000126  00000-0  00000-0 0  9996
2 43700   0.0093 121.2939 0002092  61.5383 154.3812  1.00272882  6486
FOX-1CLIFF (AO-95)      
1 43770U 18099N   20246.88038688  .00000696  00000-0  68735-4 0  9995
2 43770  97.7009 316.8923 0013122 301.6742  58.3198 14.95032889 95488
ITASAT 1                
1 43786U 18099AE  20246.79299875  .00000127  00000-0  16735-4 0  9991
2 43786  97.7022 317.2815 0013836 294.4788  65.4990 14.95363462 95490
JY1SAT (JO-97)          
1 43803U 18099AX  20246.73128295  .00000385  00000-0  39847-4 0  9997
2 43803  97.6982 317.0218 0013728 294.8502  65.1291 14.95548541 95480
PSAT2 (NO-104)          
1 44354U 19036R   20246.29541001  .00014428  00000-0  20816-3 0  9994
2 44354  28.5276 235.4967 0358875  52.4891 310.7767 15.04940550 65402
BRICSAT2 (NO-103)       
1 44355U 19036S   20246.06721502  .00025948  00000-0  35229-3 0  9999
2 44355  28.5270 223.8415 0332683  71.4394 292.2036 15.11643217 65494
JAISAT-1                
1 44419U 19038F   20246.87638045  .00000832  00000-0  50837-4 0  9998
2 44419  97.5455 207.5992 0020322 220.8160 139.1550 15.12892134 64304
DUCHIFAT-3              
1 44854U 19089C   20246.69212376  .00000397  00000-0  38489-4 0  9997
2 44854  36.9676   1.8710 0009828 325.5925  34.4196 14.99115322 39892
RS-44 & BREEZE-KM R/B   
1 44909U 19096E   20246.68153084  .00000041  00000-0  11389-3 0  9990
2 44909  82.5211 304.0047 0218123  46.1905 315.7005 12.79707685 32061
ORBITAL FACTORY 2 (OF-2)
1 45113U 19071C   20246.70964820  .00002689  00000-0  92865-4 0  9991
2 45113  51.6444 350.2806 0012692 338.1506  21.8933 15.33601755 32984
HUSKYSAT-1              
1 45119U 19071J   20246.87302552  .00001787  00000-0  65209-4 0  9993
2 45119  51.6442 349.1219 0011981 335.4505  24.5906 15.33803304 33000
